NORAD_CAT_ID,OBJECT_NAME,OBJECT_TYPE,EPOCH,MEAN_MOTION,ECCENTRICITY,INCLINATION,RA_OF_ASC_NODE,ARG_OF_PERICENTER,MEAN_ANOMALY,BSTAR,MEAN_MOTION_DOT,MEAN_MOTION_DDOT,TLE_LINE0,TLE_LINE1,TLE_LINE2,SEMIMAJOR_AXIS,PERIOD,APOGEE,PERIGEE,DECAYED
53251.0,STARLINK-4129,PAYLOAD,2024-01-11 12:16:46,15.0883796,0.0001372,53.2168,132.3878,80.29,279.8247,5.3896e-05,5.7e-06,0.0,0 STARLINK-4129,1 53251U 22086K   24011.51165471  .00000570  00000-0  53896-4 0  9999,2 53251  53.2168 132.3878 0001372  80.2900 279.8247 15.08837960 81899,6917.887,95.438,540.701,538.802,0.0
53251.0,STARLINK-4129,PAYLOAD,2024-01-11 13:52:09,15.08841625,0.0001585,53.2165,132.0912,80.104,280.0131,8.3378e-05,1.039e-05,0.0,0 STARLINK-4129,1 53251U 22086K   24011.57789223  .00001039  00000-0  83378-4 0  9991,2 53251  53.2165 132.0912 0001585  80.1040 280.0131 15.08841625 82083,6917.875,95.437,540.837,538.644,0.0
53251.0,STARLINK-4129,PAYLOAD,2024-01-11 17:02:55,15.08848913,0.0001622,53.2176,131.4919,81.8811,278.2365,0.00014375,2.001e-05,0.0,0 STARLINK-4129,1 53251U 22086K   24011.71036533  .00002001  00000-0  14375-3 0  9996,2 53251  53.2176 131.4919 0001622  81.8811 278.2365 15.08848913 81928,6917.853,95.437,540.84,538.596,0.0
53251.0,STARLINK-4129,PAYLOAD,2024-01-12 12:07:33,15.08843531,0.0001794,53.218,127.9268,110.7546,249.3639,-6.4736e-06,-3.91e-06,0.0,0 STARLINK-4129,1 53251U 22086K   24012.50525164 -.00000391  00000-0 -64736-5 0  9997,2 53251  53.2180 127.9268 0001794 110.7546 249.3639 15.08843531 82045,6917.87,95.437,540.976,538.494,0.0
53251.0,STARLINK-4129,PAYLOAD,2024-01-12 13:42:56,15.0884641,0.0001953,53.218,127.6297,130.6432,229.4731,1.2894e-05,-8.3e-07,0.0,0 STARLINK-4129,1 53251U 22086K   24012.57148724 -.00000083  00000-0  12894-4 0  9991,2 53251  53.2180 127.6297 0001953 130.6432 229.4731 15.08846410 82238,6917.861,95.437,541.077,538.375,0.0
53251.0,STARLINK-4129,PAYLOAD,2024-01-12 15:18:20,15.08845352,0.0001699,53.2173,127.3335,64.4462,295.6706,2.7413e-05,1.48e-06,0.0,0 STARLINK-4129,1 53251U 22086K   24012.63773151  .00000148  00000-0  27413-4 0  9990,2 53251  53.2173 127.3335 0001699  64.4462 295.6706 15.08845352 82246,6917.864,95.437,540.904,538.554,0.0
53251.0,STARLINK-4129,PAYLOAD,2024-01-13 13:33:43,15.08848053,0.0001568,53.2172,123.1758,76.6326,283.4841,-3.1755e-05,-7.93e-06,0.0,0 STARLINK-4129,1 53251U 22086K   24013.56509050 -.00000793  00000-0 -31755-4 0  9990,2 53251  53.2172 123.1758 0001568  76.6326 283.4841 15.08848053 82388,6917.856,95.437,540.805,538.636,0.0
53251.0,STARLINK-4129,PAYLOAD,2024-01-14 11:49:07,15.08843809,0.0001728,53.2184,119.0111,106.0318,254.0864,-3.8976e-06,-3.5e-06,0.0,0 STARLINK-4129,1 53251U 22086K   24014.49245263 -.00000350  00000-0 -38976-5 0  9998,2 53251  53.2184 119.0111 0001728 106.0318 254.0864 15.08843809 82344,6917.869,95.437,540.929,538.538,0.0
53251.0,STARLINK-4129,PAYLOAD,2024-01-14 13:24:31,15.08845162,0.0001806,53.2184,118.7157,62.9257,297.1919,8.4613e-06,-1.53e-06,0.0,0 STARLINK-4129,1 53251U 22086K   24014.55869341 -.00000153  00000-0  84613-5 0  9993,2 53251  53.2184 118.7157 0001806  62.9257 297.1919 15.08845162 82533,6917.865,95.437,540.979,538.48,0.0
53251.0,STARLINK-4129,PAYLOAD,2024-01-15 11:39:55,15.08841631,0.0001548,53.217,114.5515,51.9902,308.123,7.6468e-05,9.29e-06,0.0,0 STARLINK-4129,1 53251U 22086K   24015.48605384  .00000929  00000-0  76468-4 0  9999,2 53251  53.2170 114.5515 0001548  51.9902 308.1230 15.08841631 82499,6917.875,95.437,540.811,538.67,0.0
53251.0,STARLINK-4129,PAYLOAD,2024-01-16 11:30:43,15.08831908,0.0001488,53.2172,110.0894,66.5099,293.6049,-2.8046e-05,-7.34e-06,0.0,0 STARLINK-4129,1 53251U 22086K   24016.47966546 -.00000734  00000-0 -28046-4 0  9994,2 53251  53.2172 110.0894 0001488  66.5099 293.6049 15.08831908 82643,6917.905,95.438,540.8,538.741,0.0
53251.0,STARLINK-4129,PAYLOAD,2024-01-16 13:06:06,15.08833896,0.0001469,53.2172,109.7902,76.485,283.6306,-2.8767e-05,-7.46e-06,0.0,0 STARLINK-4129,1 53251U 22086K   24016.54590364 -.00000746  00000-0 -28767-4 0  9996,2 53251  53.2172 109.7902 0001469  76.4850 283.6306 15.08833896 82836,6917.899,95.438,540.78,538.748,0.0
53251.0,STARLINK-4129,PAYLOAD,2024-01-16 14:41:29,15.08835429,0.0001429,53.2172,109.4916,83.5808,276.5347,-2.8328e-05,-7.39e-06,0.0,0 STARLINK-4129,1 53251U 22086K   24016.61214220 -.00000739  00000-0 -28328-4 0  9993,2 53251  53.2172 109.4916 0001429  83.5808 276.5347 15.08835429 82847,6917.894,95.438,540.748,538.771,0.0
53251.0,STARLINK-4129,PAYLOAD,2024-01-17 11:21:29,15.08837703,0.0001451,53.2177,105.6253,91.9949,268.1209,3.4132e-05,2.55e-06,0.0,0 STARLINK-4129,1 53251U 22086K   24017.47326263  .00000255  00000-0  34132-4 0  9990,2 53251  53.2177 105.6253 0001451  91.9949 268.1209 15.08837703 82793,6917.887,95.438,540.756,538.749,0.0
53251.0,STARLINK-4129,PAYLOAD,2024-01-18 14:23:02,15.08846826,0.0001636,53.218,100.5696,84.3258,275.7921,0.00021786,3.182e-05,0.0,0 STARLINK-4129,1 53251U 22086K   24018.59933623  .00003182  00000-0  21786-3 0  9990,2 53251  53.2180 100.5696 0001636  84.3258 275.7921 15.08846826 83147,6917.86,95.437,540.856,538.593,0.0
53251.0,STARLINK-4129,PAYLOAD,2024-01-18 23:55:22,15.08836172,0.0001614,53.2184,98.7857,123.5682,236.5464,7.9874e-05,9.83e-06,0.0,0 STARLINK-4129,1 53251U 22086K   24018.99678472  .00000983  00000-0  79874-4 0  9990,2 53251  53.2184  98.7857 0001614 123.5682 236.5464 15.08836172 83028,6917.892,95.438,540.874,538.641,0.0
53251.0,STARLINK-4129,PAYLOAD,2024-01-19 12:38:26,15.08848223,0.0001653,53.2184,96.4089,85.2597,274.8583,0.00014204,1.974e-05,0.0,0 STARLINK-4129,1 53251U 22086K   24019.52669854  .00001974  00000-0  14204-3 0  9990,2 53251  53.2184  96.4089 0001653  85.2597 274.8583 15.08848223 83287,6917.855,95.437,540.864,538.577,0.0
53251.0,STARLINK-4129,PAYLOAD,2024-01-20 10:53:51,15.08842761,0.0001626,53.2181,92.2483,82.8286,277.2891,-5.5014e-05,-1.164e-05,0.0,0 STARLINK-4129,1 53251U 22086K   24020.45406703 -.00001164  00000-0 -55014-4 0  9994,2 53251  53.2181  92.2483 0001626  82.8286 277.2891 15.08842761 83240,6917.872,95.437,540.862,538.612,0.0
53251.0,STARLINK-4129,PAYLOAD,2024-01-20 14:04:37,15.08847967,0.0001539,53.2185,91.6512,92.2061,267.9107,-8.0036e-06,-4.15e-06,0.0,0 STARLINK-4129,1 53251U 22086K   24020.58654125 -.00000415  00000-0 -80036-5 0  9992,2 53251  53.2185  91.6512 0001539  92.2061 267.9107 15.08847967 83440,6917.856,95.437,540.786,538.656,0.0
53251.0,STARLINK-4129,PAYLOAD,2024-01-21 10:44:38,15.08839048,0.0001893,53.2175,87.7855,119.5511,240.567,8.5402e-05,1.071e-05,0.0,0 STARLINK-4129,1 53251U 22086K   24021.44766411  .00001071  00000-0  85402-4 0  9998,2 53251  53.2175  87.7855 0001893 119.5511 240.5670 15.08839048 83398,6917.883,95.438,541.058,538.439,0.0
53251.0,STARLINK-4129,PAYLOAD,2024-01-22 10:35:24,15.08843497,0.0001665,53.2183,83.3244,106.3417,253.7759,8.9528e-05,1.137e-05,0.0,0 STARLINK-4129,1 53251U 22086K   24022.44126147  .00001137  00000-0  89528-4 0  9991,2 53251  53.2183  83.3244 0001665 106.3417 253.7759 15.08843497 83721,6917.87,95.437,540.887,538.583,0.0
53251.0,STARLINK-4129,PAYLOAD,2024-01-23 07:15:26,15.08838749,0.000175,53.2185,79.4611,109.4094,250.7087,2.9992e-05,1.89e-06,0.0,0 STARLINK-4129,1 53251U 22086K   24023.30238668  .00000189  00000-0  29992-4 0  9994,2 53251  53.2185  79.4611 0001750 109.4094 250.7087 15.08838749 83856,6917.884,95.438,540.96,538.539,0.0
53251.0,STARLINK-4129,PAYLOAD,2024-01-23 08:50:49,15.08839285,0.0001719,53.2185,79.1633,106.6721,253.446,3.1251e-05,2.09e-06,0.0,0 STARLINK-4129,1 53251U 22086K   24023.36862631  .00000209  00000-0  31251-4 0  9997,2 53251  53.2185  79.1633 0001719 106.6721 253.4460 15.08839285 83680,6917.883,95.438,540.937,538.558,0.0
53251.0,STARLINK-4129,PAYLOAD,2024-01-24 10:16:59,15.08836268,0.0001759,53.2185,74.4064,111.4246,248.6934,2.1856e-05,6e-07,0.0,0 STARLINK-4129,1 53251U 22086K   24024.42847072  .00000060  00000-0  21856-4 0  9992,2 53251  53.2185  74.4064 0001759 111.4246 248.6934 15.08836268 83844,6917.892,95.438,540.974,538.54,0.0
53251.0,STARLINK-4129,PAYLOAD,2024-01-25 08:32:23,15.0883518,0.0001544,53.2175,70.2434,104.8998,255.2165,7.9428e-05,9.76e-06,0.0,0 STARLINK-4129,1 53251U 22086K   24025.35583215  .00000976  00000-0  79428-4 0  9995,2 53251  53.2175  70.2434 0001544 104.8998 255.2165 15.08835180 84168,6917.895,95.438,540.828,538.692,0.0
53251.0,STARLINK-4129,PAYLOAD,2024-01-26 09:58:33,15.08843263,0.0001417,53.2172,65.4849,93.691,266.4245,8.2486e-05,1.025e-05,0.0,0 STARLINK-4129,1 53251U 22086K   24026.41567034  .00001025  00000-0  82486-4 0  9998,2 53251  53.2172  65.4849 0001417  93.6910 266.4245 15.08843263 84141,6917.87,95.437,540.716,538.755,0.0
53251.0,STARLINK-4129,PAYLOAD,2024-01-27 01:52:25,15.08837656,0.0001476,53.2171,62.5123,81.5565,278.5594,5.6055e-05,6.04e-06,0.0,0 STARLINK-4129,1 53251U 22086K   24027.07807548  .00000604  00000-0  56055-4 0  9993,2 53251  53.2171  62.5123 0001476  81.5565 278.5594 15.08837656 84241,6917.888,95.438,540.774,538.731,0.0
53251.0,STARLINK-4129,PAYLOAD,2024-01-27 09:49:21,15.08839932,0.0001526,53.2173,61.0262,81.0771,279.0394,7.1499e-05,8.5e-06,0.0,0 STARLINK-4129,1 53251U 22086K   24027.40927458  .00000850  00000-0  71499-4 0  9995,2 53251  53.2173  61.0262 0001526  81.0771 279.0394 15.08839932 84479,6917.881,95.438,540.801,538.69,0.0
53251.0,STARLINK-4129,PAYLOAD,2024-01-28 08:04:45,15.08841468,0.000183,53.218,56.8634,68.6442,291.4745,4.455e-05,4.21e-06,0.0,0 STARLINK-4129,1 53251U 22086K   24028.33663565  .00000421  00000-0  44550-4 0  9996,2 53251  53.2180  56.8634 0001830  68.6442 291.4745 15.08841468 84437,6917.876,95.437,541.007,538.475,0.0
53251.0,STARLINK-4129,PAYLOAD,2024-01-29 07:55:32,15.08842991,0.0001709,53.218,52.402,75.3685,284.7496,7.1093e-05,8.44e-06,0.0,0 STARLINK-4129,1 53251U 22086K   24029.33023196  .00000844  00000-0  71093-4 0  9998,2 53251  53.2180  52.4020 0001709  75.3685 284.7496 15.08842991 84763,6917.871,95.437,540.919,538.554,0.0
